     2              NAVIGATION DATA                         RINEX VERSION / TYPE
CCRINEXN V1.6.0 UX  CDDIS               19-AUG-16 15:33     PGM / RUN BY / DATE 
IGS BROADCAST EPHEMERIS FILE                                COMMENT             
    0.4657D-08  0.1490D-07 -0.5960D-07 -0.1192D-06          ION ALPHA           
    0.7782D+05  0.4915D+05 -0.6554D+05 -0.2621D+06          ION BETA            
    0.931322574615D-09 0.532907051820D-14   503808     1910 DELTA-UTC: A0,A1,T,W
    17                                                      LEAP SECONDS        
                                                            END OF HEADER       
27 16  8 18  2  0  0.0 0.128015875816D-03 0.454747350886D-11 0.000000000000D+00
    0.520000000000D+02 0.130000000000D+02 0.456876173584D-08 0.180333907096D+01
    0.584870576858D-06 0.378736760467D-02 0.832602381706D-06 0.515364594841D+04
    0.352800000000D+06-0.186264514923D-08 0.156191637455D+01 0.521540641785D-07
    0.971821047287D+00 0.368187500000D+03 0.348375889631D+00-0.846535261592D-08
    0.685742849656D-10 0.100000000000D+01 0.191000000000D+04 0.000000000000D+00
    0.200000000000D+01 0.000000000000D+00 0.186264514923D-08 0.520000000000D+02
    0.345600000000D+06 0.400000000000D+01 0.000000000000D+00 0.000000000000D+00
28 16  8 18  2  0  0.0 0.545315910131D-03 0.284217094304D-11 0.000000000000D+00
    0.190000000000D+02 0.136281250000D+03 0.345085802780D-08 0.265585562179D+01
    0.694952905178D-05 0.197769264923D-01 0.908598303795D-05 0.515363408089D+04
    0.352800000000D+06 0.204890966415D-06 0.596411907636D+00 0.111758708954D-07
    0.989622631766D+00 0.213125000000D+03-0.161232497960D+01-0.729816114056D-08
    0.269296931584D-09 0.000000000000D+00 0.191000000000D+04 0.000000000000D+00
    0.200000000000D+01 0.000000000000D+00-0.107102096081D-07 0.190000000000D+02
    0.345600000000D+06 0.400000000000D+01 0.000000000000D+00 0.000000000000D+00
29 16  8 18  2  0  0.0 0.653363298625D-03-0.795807864051D-12 0.000000000000D+00
    0.390000000000D+02-0.593750000000D+00 0.445589989183D-08-0.245328426987D+01
    0.000000000000D+00 0.632705865428D-03 0.789761543274D-06 0.515376140404D+04
    0.352800000000D+06-0.279396772385D-07 0.162213865394D+01 0.558793544769D-07
    0.977880841645D+00 0.373125000000D+03 0.102887846286D+00-0.843677999718D-08
    0.846463830045D-10 0.100000000000D+01 0.191000000000D+04 0.000000000000D+00
    0.200000000000D+01 0.000000000000D+00-0.102445483208D-07 0.390000000000D+02
    0.345600000000D+06 0.400000000000D+01 0.000000000000D+00 0.000000000000D+00
30 16  8 18  2  0  0.0 0.146005768329D-03 0.193267624127D-11 0.000000000000D+00
    0.900000000000D+01-0.160312500000D+02 0.457876215239D-08-0.891879261254D+00
   -0.959262251854D-06 0.237257813569D-02 0.111963599920D-04 0.515378151894D+04
    0.352800000000D+06 0.353902578354D-07-0.461545100772D+00-0.428408384323D-07
    0.951388449993D+00 0.160375000000D+03 0.311238095470D+01-0.795068832094D-08
   -0.672885171225D-09 0.000000000000D+00 0.191000000000D+04 0.000000000000D+00
    0.200000000000D+01 0.000000000000D+00 0.372529029846D-08 0.900000000000D+01
    0.345600000000D+06 0.400000000000D+01 0.000000000000D+00 0.000000000000D+00
31 16  8 18  2  0  0.0 0.252940226346D-03-0.204636307899D-11 0.000000000000D+00
    0.760000000000D+02-0.316875000000D+02 0.425017709915D-08-0.116897382525D+01
   -0.163912773132D-05 0.819148158189D-02 0.110361725092D-04 0.515380386353D+04
    0.352800000000D+06-0.113621354103D-06-0.494785563405D+00-0.100582838059D-06
    0.970392403916D+00 0.173937500000D+03-0.392503493940D+00-0.785961340455D-08
   -0.599667815404D-09 0.100000000000D+01 0.191000000000D+04 0.000000000000D+00
    0.200000000000D+01 0.000000000000D+00-0.135041773319D-07 0.760000000000D+02
    0.345600000000D+06 0.000000000000D+00 0.000000000000D+00 0.000000000000D+00
32 16  8 18  2  0  0.0-0.830665230751D-04-0.127329258248D-10 0.000000000000D+00
    0.105000000000D+03 0.940625000000D+01 0.520021660989D-08 0.218350504967D+01
    0.463798642158D-06 0.642235041596D-03 0.407546758652D-05 0.515362527466D+04
    0.352800000000D+06-0.428408384323D-07-0.158130314195D+01-0.372529029846D-08
    0.958750694946D+00 0.300500000000D+03-0.230389540585D+01-0.839892127736D-08
    0.303584074067D-10 0.100000000000D+01 0.191000000000D+04 0.000000000000D+00
    0.280000000000D+01 0.000000000000D+00 0.931322574616D-09 0.105000000000D+03
    0.350190000000D+06 0.400000000000D+01 0.000000000000D+00 0.000000000000D+00
 2 16  8 18  3 59 44.0 0.563945155591D-03-0.443378667114D-11 0.000000000000D+00
    0.900000000000D+01-0.123718750000D+03 0.482162941165D-08 0.117976203709D+01
   -0.651739537716D-05 0.158863330726D-01 0.858493149280D-05 0.515362318611D+04
    0.359984000000D+06-0.277534127235D-06 0.257271159147D+01 0.726431608200D-07
    0.944098433695D+00 0.205906250000D+03-0.209406721369D+01-0.851678332964D-08
   -0.386801826134D-09 0.000000000000D+00 0.191000000000D+04 0.000000000000D+00
    0.200000000000D+01 0.000000000000D+00-0.204890966415D-07 0.900000000000D+01
    0.352800000000D+06 0.400000000000D+01 0.000000000000D+00 0.000000000000D+00
14 16  8 18  3 59 44.0-0.304253771901D-04-0.193267624127D-11 0.000000000000D+00
    0.200000000000D+01-0.112500000000D+01 0.508414034628D-08 0.247660722024D+01
   -0.182539224625D-06 0.893324357458D-02 0.399537384510D-05 0.515403783989D+04
    0.359984000000D+06 0.130385160446D-07-0.149872183185D+01-0.132247805595D-06
    0.962980608465D+00 0.302062500000D+03-0.195577714780D+01-0.822069956799D-08
   -0.542879755978D-10 0.100000000000D+01 0.191000000000D+04 0.000000000000D+00
    0.200000000000D+01 0.000000000000D+00-0.931322574616D-08 0.200000000000D+01
    0.355530000000D+06 0.400000000000D+01 0.000000000000D+00 0.000000000000D+00
25 16  8 18  3 59 44.0-0.229112803936D-03-0.693489710102D-11 0.000000000000D+00
    0.000000000000D+00 0.129906250000D+03 0.389051919860D-08-0.107921871599D+01
    0.662729144096D-05 0.559305085335D-02 0.105537474155D-04 0.515371844292D+04
    0.359984000000D+06 0.189989805222D-06 0.520839936902D+00 0.800937414169D-07
    0.978597329181D+00 0.187187500000D+03 0.794015780779D+00-0.782675458717D-08
    0.155363614375D-09 0.100000000000D+01 0.191000000000D+04 0.000000000000D+00
    0.200000000000D+01 0.000000000000D+00 0.558793544769D-08 0.000000000000D+00
    0.359610000000D+06 0.400000000000D+01 0.000000000000D+00 0.000000000000D+00
31 16  8 18  3 59 44.0 0.252926256508D-03-0.204636307899D-11 0.000000000000D+00
    0.600000000000D+01-0.345937500000D+02 0.431053669401D-08-0.121160535737D+00
   -0.187382102013D-05 0.819187157322D-02 0.112093985081D-04 0.515380489922D+04
    0.359984000000D+06 0.894069671631D-07-0.494841541965D+00-0.117346644402D-06
    0.970387258833D+00 0.171031250000D+03-0.392551645889D+00-0.795711716016D-08
   -0.745031033533D-09 0.100000000000D+01 0.191000000000D+04 0.000000000000D+00
    0.200000000000D+01 0.000000000000D+00-0.135041773319D-07 0.600000000000D+01
    0.359766000000D+06 0.400000000000D+01 0.000000000000D+00 0.000000000000D+00
32 16  8 18  3 59 44.0-0.831582583487D-04-0.127329258248D-10 0.000000000000D+00
    0.600000000000D+01 0.806250000000D+01 0.526164774018D-08-0.305150519274D+01
    0.452622771263D-06 0.642536091618D-03 0.412389636040D-05 0.515362461281D+04
    0.359984000000D+06-0.204890966415D-07-0.158136380185D+01-0.763684511185D-07
    0.958750790036D+00 0.298312500000D+03-0.230418839762D+01-0.845070914881D-08
    0.600024993449D-10 0.100000000000D+01 0.191000000000D+04 0.000000000000D+00
    0.200000000000D+01 0.000000000000D+00 0.931322574616D-09 0.600000000000D+01
    0.352800000000D+06 0.400000000000D+01 0.000000000000D+00 0.000000000000D+00
 1 16  8 18  4  0  0.0 0.307634472847D-04 0.136424205266D-11 0.000000000000D+00
    0.870000000000D+02-0.121375000000D+03 0.426053461123D-08 0.757705356761D+00
   -0.638887286186D-05 0.580518343486D-02 0.850297510624D-05 0.515364309311D+04
    0.360000000000D+06-0.651925802231D-07 0.262000022966D+01 0.113621354103D-06
    0.965333792656D+00 0.220500000000D+03 0.524737424231D+00-0.803747765035D-08
   -0.268939773850D-09 0.100000000000D+01 0.191000000000D+04 0.000000000000D+00
    0.200000000000D+01 0.000000000000D+00 0.512227416039D-08 0.870000000000D+02
    0.357180000000D+06 0.400000000000D+01 0.000000000000D+00 0.000000000000D+00
 3 16  8 18  4  0  0.0-0.813324004412D-04-0.261479726760D-11 0.000000000000D+00
    0.250000000000D+02 0.187500000000D+02 0.449697301619D-08 0.758857865568D+00
    0.109151005745D-05 0.135037349537D-03 0.112038105726D-04 0.515364536476D+04
    0.360000000000D+06 0.130385160446D-07-0.262204398327D+01-0.614672899246D-07
    0.959696568037D+00 0.166468750000D+03-0.620234835133D+00-0.791318655047D-08
    0.643955389012D-09 0.100000000000D+01 0.191000000000D+04 0.000000000000D+00
    0.200000000000D+01 0.000000000000D+00 0.139698386192D-08 0.250000000000D+02
    0.352800000000D+06 0.000000000000D+00 0.000000000000D+00 0.000000000000D+00
 4 16  8 18  4  0  0.0-0.260161235929D-03-0.341060513165D-12 0.000000000000D+00
    0.110000000000D+03 0.127906250000D+03 0.494020557795D-08-0.229892113913D+01
    0.670179724693D-05 0.844896538183D-02 0.106748193502D-04 0.515367542458D+04
    0.360000000000D+06 0.633299350738D-07 0.542825668971D+00-0.763684511185D-07
    0.983365006997D+00 0.186093750000D+03 0.901930649535D+00-0.759495932812D-08
    0.299298169582D-09 0.100000000000D+01 0.191000000000D+04 0.000000000000D+00
    0.400000000000D+01 0.100000000000D+01-0.195577740669D-07 0.110000000000D+03
    0.352800000000D+06 0.000000000000D+00 0.000000000000D+00 0.000000000000D+00
